     2              NAVIGATION DATA                         RINEX VERSION / TYPE
CCRINEXN V1.6.0 UX  CDDIS               05-MAR-16 15:33     PGM / RUN BY / DATE 
IGS BROADCAST EPHEMERIS FILE                                COMMENT             
    0.1583D-07  0.0000D+00 -0.1192D-06  0.0000D+00          ION ALPHA           
    0.1126D+06 -0.1638D+05 -0.2621D+06  0.6554D+05          ION BETA            
    0.372529029846D-08 0.621724893790D-14    61440     1887 DELTA-UTC: A0,A1,T,W
    17                                                      LEAP SECONDS        
                                                            END OF HEADER       
12 16  3  4 20  0  0.0 0.371053814888D-03 0.159161572810D-11 0.000000000000D+00
    0.930000000000D+02 0.754687500000D+02 0.391730602866D-08 0.206530914522D+01
    0.373274087906D-05 0.593632354867D-02 0.539422035217D-05 0.515377616882D+04
    0.504000000000D+06-0.163912773132D-06-0.270744702390D+01-0.204890966415D-07
    0.990529851636D+00 0.290562500000D+03 0.680923307006D+00-0.791104381244D-08
    0.137148569931D-09 0.000000000000D+00 0.188600000000D+04 0.000000000000D+00
    0.200000000000D+01 0.000000000000D+00-0.121071934700D-07 0.930000000000D+02
    0.498120000000D+06 0.400000000000D+01 0.000000000000D+00 0.000000000000D+00
13 16  3  4 20  0  0.0-0.104401260614D-05-0.284217094304D-11 0.000000000000D+00
    0.220000000000D+02-0.146875000000D+02 0.458626246481D-08-0.283348787776D+01
   -0.754371285439D-06 0.463450746611D-02 0.731274485588D-05 0.515367682266D+04
    0.504000000000D+06 0.186264514923D-07 0.154331504934D+01 0.279396772385D-07
    0.971634223871D+00 0.243156250000D+03 0.198206716083D+01-0.797176062726D-08
   -0.337871216549D-09 0.000000000000D+00 0.188600000000D+04 0.000000000000D+00
    0.200000000000D+01 0.000000000000D+00-0.111758708954D-07 0.220000000000D+02
    0.496800000000D+06 0.400000000000D+01 0.000000000000D+00 0.000000000000D+00
14 16  3  4 20  0  0.0-0.597443431616D-06-0.216004991671D-11 0.000000000000D+00
    0.390000000000D+02-0.962500000000D+01 0.480162857853D-08-0.101366896880D+01
   -0.344589352608D-06 0.835730705876D-02 0.709667801857D-05 0.515372892380D+04
    0.504000000000D+06-0.670552253723D-07 0.150679355403D+01 0.240281224251D-06
    0.964131892809D+00 0.246218750000D+03-0.195152989577D+01-0.819248410699D-08
   -0.329299430929D-09 0.100000000000D+01 0.188600000000D+04 0.000000000000D+00
    0.200000000000D+01 0.000000000000D+00-0.931322574616D-08 0.390000000000D+02
    0.496818000000D+06 0.400000000000D+01 0.000000000000D+00 0.000000000000D+00
15 16  3  4 20  0  0.0-0.300163403153D-03-0.181898940355D-11 0.000000000000D+00
    0.410000000000D+02-0.162812500000D+02 0.561273379289D-08-0.183240411816D+01
   -0.109337270260D-05 0.809156917967D-02 0.590272247791D-05 0.515354470635D+04
    0.504000000000D+06 0.726431608200D-07 0.137327469744D+01-0.106170773506D-06
    0.930981655648D+00 0.246843750000D+03 0.475181072833D+00-0.855607068040D-08
   -0.114647632677D-09 0.000000000000D+00 0.188600000000D+04 0.000000000000D+00
    0.200000000000D+01 0.000000000000D+00-0.107102096081D-07 0.410000000000D+02
    0.496800000000D+06 0.400000000000D+01 0.000000000000D+00 0.000000000000D+00
16 16  3  4 20  0  0.0-0.347909517586D-04 0.295585778076D-11 0.000000000000D+00
    0.105000000000D+03 0.578437500000D+02 0.404552565524D-08 0.589165971985D-02
    0.301375985146D-05 0.863538286649D-02 0.441260635853D-05 0.515371547127D+04
    0.504000000000D+06 0.122934579849D-06-0.268869583442D+01 0.279396772385D-07
    0.991039124140D+00 0.306593750000D+03 0.334960088204D+00-0.814248202420D-08
    0.817891211309D-10 0.100000000000D+01 0.188600000000D+04 0.000000000000D+00
    0.200000000000D+01 0.000000000000D+00-0.102445483208D-07 0.105000000000D+03
    0.498876000000D+06 0.400000000000D+01 0.000000000000D+00 0.000000000000D+00
17 16  3  4 20  0  0.0-0.201554037631D-03-0.454747350886D-12 0.000000000000D+00
    0.290000000000D+02-0.767812500000D+02 0.442482716896D-08-0.947404809956D+00
   -0.384263694286D-05 0.109994721133D-01 0.442564487457D-05 0.515364964676D+04
    0.504000000000D+06 0.223517417908D-07-0.166601096295D+01 0.257045030594D-06
    0.975183817577D+00 0.303781250000D+03-0.194227381706D+01-0.838820654533D-08
   -0.252867675811D-09 0.100000000000D+01 0.188600000000D+04 0.000000000000D+00
    0.200000000000D+01 0.000000000000D+00-0.107102096081D-07 0.290000000000D+02
    0.496818000000D+06 0.400000000000D+01 0.000000000000D+00 0.000000000000D+00
18 16  3  4 20  0  0.0 0.490094535053D-03 0.397903932026D-11 0.000000000000D+00
    0.420000000000D+02 0.295937500000D+02 0.562130557851D-08 0.612458894503D+00
    0.153854489327D-05 0.167520550313D-01 0.797770917416D-05 0.515366358185D+04
    0.504000000000D+06-0.227242708206D-06 0.353405754551D+00 0.577419996262D-07
    0.925367562691D+00 0.208687500000D+03-0.190835609064D+01-0.886536927821D-08
    0.324299222650D-09 0.000000000000D+00 0.188600000000D+04 0.000000000000D+00
    0.200000000000D+01 0.000000000000D+00-0.111758708954D-07 0.420000000000D+02
    0.500070000000D+06 0.400000000000D+01 0.000000000000D+00 0.000000000000D+00
19 16  3  4 20  0  0.0-0.525122508407D-03-0.227373675443D-12 0.000000000000D+00
    0.830000000000D+02-0.925937500000D+02 0.428232123301D-08 0.218120628603D+01
   -0.504404306412D-05 0.107320626266D-01 0.451877713203D-05 0.515360910034D+04
    0.504000000000D+06-0.800937414169D-07-0.161699001177D+01-0.135973095894D-06
    0.972262572056D+00 0.304625000000D+03 0.720537746135D+00-0.815391107170D-08
   -0.307512809143D-09 0.100000000000D+01 0.188600000000D+04 0.000000000000D+00
    0.200000000000D+01 0.000000000000D+00-0.153668224812D-07 0.830000000000D+02
    0.496878000000D+06 0.400000000000D+01 0.000000000000D+00 0.000000000000D+00
20 16  3  4 20  0  0.0 0.397085677832D-03 0.261479726760D-11 0.000000000000D+00
    0.190000000000D+02 0.280937500000D+02 0.535772317067D-08-0.170814718172D+01
    0.169686973095D-05 0.481594621670D-02 0.778026878834D-05 0.515370175934D+04
    0.504000000000D+06 0.186264514923D-07 0.301488355777D+00 0.465661287308D-07
    0.926641423478D+00 0.205687500000D+03 0.134262958168D+01-0.841713632180D-08
    0.531093550750D-09 0.000000000000D+00 0.188600000000D+04 0.000000000000D+00
    0.200000000000D+01 0.000000000000D+00-0.838190317154D-08 0.190000000000D+02
    0.496800000000D+06 0.400000000000D+01 0.000000000000D+00 0.000000000000D+00
21 16  3  4 20  0  0.0-0.513376668096D-03-0.170530256582D-11 0.000000000000D+00
    0.550000000000D+02-0.778750000000D+02 0.483055835500D-08 0.148117089351D+01
   -0.432692468166D-05 0.232431848999D-01 0.104010105133D-04 0.515366694832D+04
    0.504000000000D+06-0.324100255966D-06-0.688479031652D+00-0.530853867531D-06
    0.935912286446D+00 0.173062500000D+03-0.182148350492D+01-0.832070373357D-08
    0.950039572962D-10 0.000000000000D+00 0.188600000000D+04 0.000000000000D+00
    0.200000000000D+01 0.000000000000D+00-0.116415321827D-07 0.550000000000D+02
    0.497160000000D+06 0.400000000000D+01 0.000000000000D+00 0.000000000000D+00
22 16  3  4 20  0  0.0 0.387023203075D-03-0.636646291241D-11 0.000000000000D+00
    0.270000000000D+02 0.271562500000D+02 0.561094800422D-08-0.786816022137D+00
    0.159628689289D-05 0.772058183793D-02 0.740960240364D-05 0.515507137299D+04
    0.504000000000D+06-0.204890966415D-07 0.354164834947D+00 0.158324837685D-06
    0.923227146768D+00 0.217750000000D+03-0.201599793207D+01-0.865000316450D-08
    0.460376319379D-09 0.100000000000D+01 0.188600000000D+04 0.000000000000D+00
    0.200000000000D+01 0.000000000000D+00-0.176951289177D-07 0.270000000000D+02
    0.496818000000D+06 0.400000000000D+01 0.000000000000D+00 0.000000000000D+00
23 16  3  4 20  0  0.0-0.163082964718D-03-0.181898940355D-11 0.000000000000D+00
    0.760000000000D+02-0.984375000000D+01 0.520307387177D-08-0.222858642536D+01
   -0.828877091408D-06 0.105402669869D-01 0.696443021297D-05 0.515371166992D+04
    0.504000000000D+06 0.171363353729D-06 0.142982506268D+01-0.154599547386D-06
    0.946154926396D+00 0.237531250000D+03-0.260737497892D+01-0.826713007344D-08
   -0.183221917643D-09 0.100000000000D+01 0.188600000000D+04 0.000000000000D+00
    0.200000000000D+01 0.000000000000D+00-0.200234353542D-07 0.760000000000D+02
    0.496818000000D+06 0.400000000000D+01 0.000000000000D+00 0.000000000000D+00
24 16  3  4 20  0  0.0-0.134115107358D-04-0.568434188608D-12 0.000000000000D+00
    0.240000000000D+02 0.335937500000D+02 0.467412326742D-08-0.284625278450D+01
    0.170804560184D-05 0.433490436990D-02 0.107567757368D-04 0.515363455963D+04
    0.504000000000D+06-0.689178705216D-07 0.245624854566D+01-0.745058059692D-07
    0.950373454023D+00 0.166625000000D+03 0.381161488609D+00-0.800461913880D-08
   -0.243224416987D-09 0.000000000000D+00 0.188600000000D+04 0.000000000000D+00
    0.200000000000D+01 0.000000000000D+00 0.232830643654D-08 0.240000000000D+02
    0.496800000000D+06 0.400000000000D+01 0.000000000000D+00 0.000000000000D+00
25 16  3  4 20  0  0.0-0.128195621073D-03-0.682121026330D-11 0.000000000000D+00
    0.310000000000D+02 0.739375000000D+02 0.419517474587D-08 0.152962926199D+01
    0.383332371712D-05 0.525646226015D-02 0.548921525478D-05 0.515355142784D+04
    0.504000000000D+06-0.132247805595D-06-0.275734761016D+01 0.128522515297D-06
    0.978838263011D+00 0.283531250000D+03 0.705665283529D+00-0.812033824468D-08
    0.131791203918D-09 0.000000000000D+00 0.188600000000D+04 0.000000000000D+00
    0.200000000000D+01 0.000000000000D+00 0.558793544769D-08 0.310000000000D+02
    0.502770000000D+06 0.400000000000D+01 0.000000000000D+00 0.000000000000D+00
